{
"type": "FeatureCollection",
"name": "h3_hexagons",
"crs": { "type": "name", "properties": { "name": "urn:ogc:def:crs:OGC:1.3:CRS84" } },
"features": [
{ "type": "Feature", "properties": { "h3_id": "8728340d2ffffff", "num_nodes": 10, "num_edge_midpoints": 24, "total_edge_distance": 3431.9203948999998 }, "geometry": { "type": "Polygon", "coordinates": [ [ [ -122.037858533457253, 37.273826813696274 ], [ -122.030333135816264, 37.285628588485643 ], [ -122.039092288222562, 37.296254882431349 ], [ -122.055376846776937, 37.295078243564312 ], [ -122.06289891346681, 37.283276432627389 ], [ -122.054139753453143, 37.272651296605318 ], [ -122.037858533457253, 37.273826813696274 ] ] ] } },
{ "type": "Feature", "properties": { "h3_id": "8728340d3ffffff", "num_nodes": 5, "num_edge_midpoints": 8, "total_edge_distance": 4529.4449521999995 }, "geometry": { "type": "Polygon", "coordinates": [ [ [ -122.06289891346681, 37.283276432627389 ], [ -122.055376846776937, 37.295078243564312 ], [ -122.064137935578842, 37.30570083251034 ], [ -122.080421095662743, 37.304520452704558 ], [ -122.087939828383085, 37.292718607542561 ], [ -122.079178735888007, 37.282097176311481 ], [ -122.06289891346681, 37.283276432627389 ] ] ] } },
{ "type": "Feature", "properties": { "h3_id": "8728340daffffff", "num_nodes": 1, "num_edge_midpoints": 2, "total_edge_distance": 286.1925776 }, "geometry": { "type": "Polygon", "coordinates": [ [ [ -122.089184117593121, 37.31513933491879 ], [ -122.08166397683847, 37.326939753823773 ], [ -122.090428929043995, 37.337556084353004 ], [ -122.106714022486727, 37.336370839103637 ], [ -122.114230824710063, 37.324570388122943 ], [ -122.105465872920789, 37.313955214367176 ], [ -122.089184117593121, 37.31513933491879 ] ] ] } },
{ "type": "Feature", "properties": { "h3_id": "872834700ffffff", "num_nodes": 240, "num_edge_midpoints": 572, "total_edge_distance": 70750.885000139999 }, "geometry": { "type": "Polygon", "coordinates": [ [ [ -121.967615572438177, 37.335165695721422 ], [ -121.960074534006409, 37.346961631021664 ], [ -121.968835570749846, 37.357588845607154 ], [ -121.98513766544545, 37.356418969168274 ], [ -121.99267537584285, 37.344622992864146 ], [ -121.983914320483052, 37.333996933903585 ], [ -121.967615572438177, 37.335165695721422 ] ] ] } },
{ "type": "Feature", "properties": { "h3_id": "872834701ffffff", "num_nodes": 193, "num_edge_midpoints": 478, "total_edge_distance": 51292.56208982 }, "geometry": { "type": "Polygon", "coordinates": [ [ [ -121.99267537584285, 37.344622992864146 ], [ -121.98513766544545, 37.356418969168274 ], [ -121.993900650997176, 37.367042476200012 ], [ -122.010201362542773, 37.365868851405352 ], [ -122.017735741869771, 37.354072836016236 ], [ -122.008972741624902, 37.343450484407377 ], [ -121.99267537584285, 37.344622992864146 ] ] ] } },
{ "type": "Feature", "properties": { "h3_id": "872834702ffffff", "num_nodes": 170, "num_edge_midpoints": 392, "total_edge_distance": 44447.182064480003 }, "geometry": { "type": "Polygon", "coordinates": [ [ [ -121.943771062466951, 37.348127758925898 ], [ -121.936225279682489, 37.359922213717752 ], [ -121.944986294067647, 37.370550583403279 ], [ -121.961293114500847, 37.369383343097887 ], [ -121.968835570749846, 37.357588845607154 ], [ -121.960074534006409, 37.346961631021664 ], [ -121.943771062466951, 37.348127758925898 ] ] ] } },
{ "type": "Feature", "properties": { "h3_id": "872834703ffffff", "num_nodes": 182, "num_edge_midpoints": 410, "total_edge_distance": 50818.461871574 }, "geometry": { "type": "Polygon", "coordinates": [ [ [ -121.968835570749846, 37.357588845607154 ], [ -121.961293114500847, 37.369383343097887 ], [ -121.970056081619759, 37.380008005029957 ], [ -121.986361524325105, 37.378837014471735 ], [ -121.993900650997176, 37.367042476200012 ], [ -121.98513766544545, 37.356418969168274 ], [ -121.968835570749846, 37.357588845607154 ] ] ] } },
{ "type": "Feature", "properties": { "h3_id": "872834704ffffff", "num_nodes": 235, "num_edge_midpoints": 580, "total_edge_distance": 67351.130411998005 }, "geometry": { "type": "Polygon", "coordinates": [ [ [ -121.966396086362991, 37.312738561208306 ], [ -121.958856465229715, 37.324535931148866 ], [ -121.967615572438177, 37.335165695721422 ], [ -121.983914320483052, 37.333996933903585 ], [ -121.991450615123597, 37.322199522734479 ], [ -121.982691489115439, 37.311570914512565 ], [ -121.966396086362991, 37.312738561208306 ] ] ] } },
{ "type": "Feature", "properties": { "h3_id": "872834705ffffff", "num_nodes": 245, "num_edge_midpoints": 612, "total_edge_distance": 88537.653501288005 }, "geometry": { "type": "Polygon", "coordinates": [ [ [ -121.991450615123597, 37.322199522734479 ], [ -121.983914320483052, 37.333996933903585 ], [ -121.99267537584285, 37.344622992864146 ], [ -122.008972741624902, 37.343450484407377 ], [ -122.0165057067383, 37.331653033929285 ], [ -122.007744636499552, 37.321028131117565 ], [ -121.991450615123597, 37.322199522734479 ] ] ] } },
{ "type": "Feature", "properties": { "h3_id": "872834706ffffff", "num_nodes": 183, "num_edge_midpoints": 428, "total_edge_distance": 47571.510510565997 }, "geometry": { "type": "Polygon", "coordinates": [ [ [ -121.942556341224133, 37.325700946151152 ], [ -121.935011977797885, 37.337496838528921 ], [ -121.943771062466951, 37.348127758925898 ], [ -121.960074534006409, 37.346961631021664 ], [ -121.967615572438177, 37.335165695721422 ], [ -121.958856465229715, 37.324535931148866 ], [ -121.942556341224133, 37.325700946151152 ] ] ] } },
{ "type": "Feature", "properties": { "h3_id": "872834708ffffff", "num_nodes": 68, "num_edge_midpoints": 152, "total_edge_distance": 27219.409126396 }, "geometry": { "type": "Polygon", "coordinates": [ [ [ -122.01896629363435, 37.376488649146538 ], [ -122.011430499577131, 37.388283226281025 ], [ -122.020197362356527, 37.398900467493526 ], [ -122.036500030677331, 37.39772197697868 ], [ -122.044032489085495, 37.385927362899949 ], [ -122.035265615725052, 37.375311276180689 ], [ -122.01896629363435, 37.376488649146538 ] ] ] } },
{ "type": "Feature", "properties": { "h3_id": "872834709ffffff", "num_nodes": 42, "num_edge_midpoints": 80, "total_edge_distance": 29063.391940432 }, "geometry": { "type": "Polygon", "coordinates": [ [ [ -122.044032489085495, 37.385927362899949 ], [ -122.036500030677331, 37.39772197697868 ], [ -122.04526883637854, 37.408335505235961 ], [ -122.061570108045032, 37.407153265028811 ], [ -122.069099227773506, 37.395358615924657 ], [ -122.060330415417567, 37.384746241953273 ], [ -122.044032489085495, 37.385927362899949 ] ] ] } },
{ "type": "Feature", "properties": { "h3_id": "87283470affffff", "num_nodes": 10, "num_edge_midpoints": 20, "total_edge_distance": 9260.5813238400006 }, "geometry": { "type": "Polygon", "coordinates": [ [ [ -121.995126440909587, 37.389457966910982 ], [ -121.987585897444859, 37.401251063986045 ], [ -121.996352745903479, 37.411869459172877 ], [ -122.012660153052011, 37.410693603210902 ], [ -122.020197362356527, 37.398900467493526 ], [ -122.011430499577131, 37.388283226281025 ], [ -121.995126440909587, 37.389457966910982 ] ] ] } },
{ "type": "Feature", "properties": { "h3_id": "87283470bffffff", "num_nodes": 8, "num_edge_midpoints": 16, "total_edge_distance": 6382.1549856000001 }, "geometry": { "type": "Polygon", "coordinates": [ [ [ -122.020197362356527, 37.398900467493526 ], [ -122.012660153052011, 37.410693603210902 ], [ -122.021428948360935, 37.42130828523748 ], [ -122.037734964270271, 37.420128677677788 ], [ -122.04526883637854, 37.408335505235961 ], [ -122.036500030677331, 37.39772197697868 ], [ -122.020197362356527, 37.398900467493526 ] ] ] } },
{ "type": "Feature", "properties": { "h3_id": "87283470cffffff", "num_nodes": 63, "num_edge_midpoints": 144, "total_edge_distance": 23360.29554712 }, "geometry": { "type": "Polygon", "coordinates": [ [ [ -122.017735741869771, 37.354072836016236 ], [ -122.010201362542773, 37.365868851405352 ], [ -122.01896629363435, 37.376488649146538 ], [ -122.035265615725052, 37.375311276180689 ], [ -122.042796660949037, 37.363515223625789 ], [ -122.034031719087892, 37.352896581102911 ], [ -122.017735741869771, 37.354072836016236 ] ] ] } },
{ "type": "Feature", "properties": { "h3_id": "87283470dffffff", "num_nodes": 25, "num_edge_midpoints": 54, "total_edge_distance": 11347.941300506 }, "geometry": { "type": "Polygon", "coordinates": [ [ [ -122.042796660949037, 37.363515223625789 ], [ -122.035265615725052, 37.375311276180689 ], [ -122.044032489085495, 37.385927362899949 ], [ -122.060330415417567, 37.384746241953273 ], [ -122.06785812350968, 37.372950154152036 ], [ -122.059091243303456, 37.362335222444003 ], [ -122.042796660949037, 37.363515223625789 ] ] ] } },
{ "type": "Feature", "properties": { "h3_id": "87283470effffff", "num_nodes": 90, "num_edge_midpoints": 190, "total_edge_distance": 25785.98156566 }, "geometry": { "type": "Polygon", "coordinates": [ [ [ -121.993900650997176, 37.367042476200012 ], [ -121.986361524325105, 37.378837014471735 ], [ -121.995126440909587, 37.389457966910982 ], [ -122.011430499577131, 37.388283226281025 ], [ -122.01896629363435, 37.376488649146538 ], [ -122.010201362542773, 37.365868851405352 ], [ -121.993900650997176, 37.367042476200012 ] ] ] } },
{ "type": "Feature", "properties": { "h3_id": "872834715ffffff", "num_nodes": 108, "num_edge_midpoints": 240, "total_edge_distance": 35885.199767724 }, "geometry": { "type": "Polygon", "coordinates": [ [ [ -121.918707135721746, 37.338659217725414 ], [ -121.911158029446952, 37.350453627900791 ], [ -121.919917087832602, 37.361085703594988 ], [ -121.936225279682489, 37.359922213717752 ], [ -121.943771062466951, 37.348127758925898 ], [ -121.935011977797885, 37.337496838528921 ], [ -121.918707135721746, 37.338659217725414 ] ] ] } },
{ "type": "Feature", "properties": { "h3_id": "87283471cffffff", "num_nodes": 33, "num_edge_midpoints": 64, "total_edge_distance": 8286.3763115399997 }, "geometry": { "type": "Polygon", "coordinates": [ [ [ -121.944986294067647, 37.370550583403279 ], [ -121.937439091404869, 37.382343597441412 ], [ -121.946202036346804, 37.392969413750272 ], [ -121.962512207034365, 37.391801061545166 ], [ -121.970056081619759, 37.380008005029957 ], [ -121.961293114500847, 37.369383343097887 ], [ -121.944986294067647, 37.370550583403279 ] ] ] } },
{ "type": "Feature", "properties": { "h3_id": "87283471dffffff", "num_nodes": 11, "num_edge_midpoints": 22, "total_edge_distance": 9822.8224126000005 }, "geometry": { "type": "Polygon", "coordinates": [ [ [ -121.970056081619759, 37.380008005029957 ], [ -121.962512207034365, 37.391801061545166 ], [ -121.97127710536985, 37.402423168161242 ], [ -121.987585897444859, 37.401251063986045 ], [ -121.995126440909587, 37.389457966910982 ], [ -121.986361524325105, 37.378837014471735 ], [ -121.970056081619759, 37.380008005029957 ] ] ] } },
{ "type": "Feature", "properties": { "h3_id": "872834720ffffff", "num_nodes": 42, "num_edge_midpoints": 82, "total_edge_distance": 9499.6968467799998 }, "geometry": { "type": "Polygon", "coordinates": [ [ [ -121.989002635699293, 37.277340645452846 ], [ -121.981469171020365, 37.289140916837063 ], [ -121.990226368516574, 37.299772071649066 ], [ -122.0065170468432, 37.298601797373315 ], [ -122.014047185078454, 37.286801486226814 ], [ -122.00528997233242, 37.276171489018942 ], [ -121.989002635699293, 37.277340645452846 ] ] ] } },
{ "type": "Feature", "properties": { "h3_id": "872834721ffffff", "num_nodes": 132, "num_edge_midpoints": 316, "total_edge_distance": 38305.383871224003 }, "geometry": { "type": "Polygon", "coordinates": [ [ [ -122.014047185078454, 37.286801486226814 ], [ -122.0065170468432, 37.298601797373315 ], [ -122.015276187915831, 37.309229248719298 ], [ -122.031565479458365, 37.308055231418933 ], [ -122.039092288222562, 37.296254882431349 ], [ -122.030333135816264, 37.285628588485643 ], [ -122.014047185078454, 37.286801486226814 ] ] ] } },
{ "type": "Feature", "properties": { "h3_id": "872834722ffffff", "num_nodes": 41, "num_edge_midpoints": 84, "total_edge_distance": 8384.4157752200008 }, "geometry": { "type": "Polygon", "coordinates": [ [ [ -121.96517711220288, 37.290307447910294 ], [ -121.957638907849585, 37.302106249318825 ], [ -121.966396086362991, 37.312738561208306 ], [ -121.982691489115439, 37.311570914512565 ], [ -121.990226368516574, 37.299772071649066 ], [ -121.981469171020365, 37.289140916837063 ], [ -121.96517711220288, 37.290307447910294 ] ] ] } },
{ "type": "Feature", "properties": { "h3_id": "872834723ffffff", "num_nodes": 177, "num_edge_midpoints": 450, "total_edge_distance": 57215.777792271998 }, "geometry": { "type": "Polygon", "coordinates": [ [ [ -121.990226368516574, 37.299772071649066 ], [ -121.982691489115439, 37.311570914512565 ], [ -121.991450615123597, 37.322199522734479 ], [ -122.007744636499552, 37.321028131117565 ], [ -122.015276187915831, 37.309229248719298 ], [ -122.0065170468432, 37.298601797373315 ], [ -121.990226368516574, 37.299772071649066 ] ] ] } },
{ "type": "Feature", "properties": { "h3_id": "872834728ffffff", "num_nodes": 267, "num_edge_midpoints": 636, "total_edge_distance": 107788.95757711399 }, "geometry": { "type": "Polygon", "coordinates": [ [ [ -122.040326560842942, 37.318678977558847 ], [ -122.032798340440664, 37.330477897571335 ], [ -122.041561351643352, 37.341099093235698 ], [ -122.057852591376175, 37.339920212322575 ], [ -122.065377477739062, 37.32812125661669 ], [ -122.05661445930933, 37.317501217417529 ], [ -122.040326560842942, 37.318678977558847 ] ] ] } },
{ "type": "Feature", "properties": { "h3_id": "872834729ffffff", "num_nodes": 167, "num_edge_midpoints": 378, "total_edge_distance": 53728.647650074003 }, "geometry": { "type": "Polygon", "coordinates": [ [ [ -122.065377477739062, 37.32812125661669 ], [ -122.057852591376175, 37.339920212322575 ], [ -122.066617540273825, 37.35053769910779 ], [ -122.082907379742309, 37.349355073831148 ], [ -122.090428929043995, 37.337556084353004 ], [ -122.08166397683847, 37.326939753823773 ], [ -122.065377477739062, 37.32812125661669 ] ] ] } },
{ "type": "Feature", "properties": { "h3_id": "87283472affffff", "num_nodes": 160, "num_edge_midpoints": 392, "total_edge_distance": 63647.752904535999 }, "geometry": { "type": "Polygon", "coordinates": [ [ [ -122.0165057067383, 37.331653033929285 ], [ -122.008972741624902, 37.343450484407377 ], [ -122.017735741869771, 37.354072836016236 ], [ -122.034031719087892, 37.352896581102911 ], [ -122.041561351643352, 37.341099093235698 ], [ -122.032798340440664, 37.330477897571335 ], [ -122.0165057067383, 37.331653033929285 ] ] ] } },
{ "type": "Feature", "properties": { "h3_id": "87283472bffffff", "num_nodes": 53, "num_edge_midpoints": 112, "total_edge_distance": 22092.538862900001 }, "geometry": { "type": "Polygon", "coordinates": [ [ [ -122.041561351643352, 37.341099093235698 ], [ -122.034031719087892, 37.352896581102911 ], [ -122.042796660949037, 37.363515223625789 ], [ -122.059091243303456, 37.362335222444003 ], [ -122.066617540273825, 37.35053769910779 ], [ -122.057852591376175, 37.339920212322575 ], [ -122.041561351643352, 37.341099093235698 ] ] ] } },
{ "type": "Feature", "properties": { "h3_id": "87283472cffffff", "num_nodes": 313, "num_edge_midpoints": 716, "total_edge_distance": 90215.797142943993 }, "geometry": { "type": "Polygon", "coordinates": [ [ [ -122.039092288222562, 37.296254882431349 ], [ -122.031565479458365, 37.308055231418933 ], [ -122.040326560842942, 37.318678977558847 ], [ -122.05661445930933, 37.317501217417529 ], [ -122.064137935578842, 37.30570083251034 ], [ -122.055376846776937, 37.295078243564312 ], [ -122.039092288222562, 37.296254882431349 ] ] ] } },
{ "type": "Feature", "properties": { "h3_id": "87283472dffffff", "num_nodes": 156, "num_edge_midpoints": 360, "total_edge_distance": 45289.189354709997 }, "geometry": { "type": "Polygon", "coordinates": [ [ [ -122.064137935578842, 37.30570083251034 ], [ -122.05661445930933, 37.317501217417529 ], [ -122.065377477739062, 37.32812125661669 ], [ -122.08166397683847, 37.326939753823773 ], [ -122.089184117593121, 37.31513933491879 ], [ -122.080421095662743, 37.304520452704558 ], [ -122.064137935578842, 37.30570083251034 ] ] ] } },
{ "type": "Feature", "properties": { "h3_id": "87283472effffff", "num_nodes": 379, "num_edge_midpoints": 982, "total_edge_distance": 111783.219552492 }, "geometry": { "type": "Polygon", "coordinates": [ [ [ -122.015276187915831, 37.309229248719298 ], [ -122.007744636499552, 37.321028131117565 ], [ -122.0165057067383, 37.331653033929285 ], [ -122.032798340440664, 37.330477897571335 ], [ -122.040326560842942, 37.318678977558847 ], [ -122.031565479458365, 37.308055231418933 ], [ -122.015276187915831, 37.309229248719298 ] ] ] } },
{ "type": "Feature", "properties": { "h3_id": "872834731ffffff", "num_nodes": 66, "num_edge_midpoints": 158, "total_edge_distance": 23984.166662020001 }, "geometry": { "type": "Polygon", "coordinates": [ [ [ -121.941342130018896, 37.303270150918991 ], [ -121.933799185430956, 37.31506747771175 ], [ -121.942556341224133, 37.325700946151152 ], [ -121.958856465229715, 37.324535931148866 ], [ -121.966396086362991, 37.312738561208306 ], [ -121.957638907849585, 37.302106249318825 ], [ -121.941342130018896, 37.303270150918991 ] ] ] } },
{ "type": "Feature", "properties": { "h3_id": "872834733ffffff", "num_nodes": 10, "num_edge_midpoints": 20, "total_edge_distance": 7105.9354844 }, "geometry": { "type": "Polygon", "coordinates": [ [ [ -121.917497691767991, 37.316228745727621 ], [ -121.909950006390574, 37.328024593264672 ], [ -121.918707135721746, 37.338659217725414 ], [ -121.935011977797885, 37.337496838528921 ], [ -121.942556341224133, 37.325700946151152 ], [ -121.933799185430956, 37.31506747771175 ], [ -121.917497691767991, 37.316228745727621 ] ] ] } },
{ "type": "Feature", "properties": { "h3_id": "872834754ffffff", "num_nodes": 41, "num_edge_midpoints": 86, "total_edge_distance": 12015.94181398 }, "geometry": { "type": "Polygon", "coordinates": [ [ [ -122.069099227773506, 37.395358615924657 ], [ -122.061570108045032, 37.407153265028811 ], [ -122.07034085339248, 37.417763078607855 ], [ -122.086640722098181, 37.416577088906742 ], [ -122.094166500119982, 37.40478240669627 ], [ -122.085395752044334, 37.394173747193264 ], [ -122.069099227773506, 37.395358615924657 ] ] ] } },
{ "type": "Feature", "properties": { "h3_id": "872834772ffffff", "num_nodes": 77, "num_edge_midpoints": 174, "total_edge_distance": 32359.344839186 }, "geometry": { "type": "Polygon", "coordinates": [ [ [ -122.06785812350968, 37.372950154152036 ], [ -122.060330415417567, 37.384746241953273 ], [ -122.069099227773506, 37.395358615924657 ], [ -122.085395752044334, 37.394173747193264 ], [ -122.09292011997934, 37.382377626065484 ], [ -122.084151304701734, 37.371766406895674 ], [ -122.06785812350968, 37.372950154152036 ] ] ] } },
{ "type": "Feature", "properties": { "h3_id": "872834774ffffff", "num_nodes": 29, "num_edge_midpoints": 56, "total_edge_distance": 13859.05599108 }, "geometry": { "type": "Polygon", "coordinates": [ [ [ -122.090428929043995, 37.337556084353004 ], [ -122.082907379742309, 37.349355073831148 ], [ -122.09167426306341, 37.359968850010965 ], [ -122.107962695974052, 37.358782480568152 ], [ -122.11548090519635, 37.346983459239127 ], [ -122.106714022486727, 37.336370839103637 ], [ -122.090428929043995, 37.337556084353004 ] ] ] } },
{ "type": "Feature", "properties": { "h3_id": "872834776ffffff", "num_nodes": 52, "num_edge_midpoints": 112, "total_edge_distance": 19333.637908159999 }, "geometry": { "type": "Polygon", "coordinates": [ [ [ -122.066617540273825, 37.35053769910779 ], [ -122.059091243303456, 37.362335222444003 ], [ -122.06785812350968, 37.372950154152036 ], [ -122.084151304701734, 37.371766406895674 ], [ -122.09167426306341, 37.359968850010965 ], [ -122.082907379742309, 37.349355073831148 ], [ -122.066617540273825, 37.35053769910779 ] ] ] } }
]
}
